ONEWEB-0228             
1 48780U 21045P   24239.67719777 -.00000016  00000+0 -77482-4 0  9990
2 48780  87.9054  30.4140 0001649  96.2707 263.8611 13.15547177157613
